NORAD_CAT_ID,OBJECT_NAME,OBJECT_TYPE,EPOCH,MEAN_MOTION,ECCENTRICITY,INCLINATION,RA_OF_ASC_NODE,ARG_OF_PERICENTER,MEAN_ANOMALY,BSTAR,MEAN_MOTION_DOT,MEAN_MOTION_DDOT,TLE_LINE0,TLE_LINE1,TLE_LINE2,SEMIMAJOR_AXIS,PERIOD,APOGEE,PERIGEE,DECAYED
52832.0,STARLINK-4083,PAYLOAD,2023-06-23 08:24:54,15.08843248,0.0001043,53.2153,159.9243,89.7697,270.3415,9.116e-05,1.163e-05,0.0,0 STARLINK-4083,1 52832U 22062C   23174.35063070  .00001163  00000-0  91160-4 0  9995,2 52832  53.2153 159.9243 0001043  89.7697 270.3415 15.08843248 56767,6917.87,95.437,540.457,539.014,0.0
52832.0,STARLINK-4083,PAYLOAD,2023-06-24 08:15:41,15.08842618,0.0001094,53.2154,155.4635,89.8214,270.2904,5.2632e-05,5.5e-06,0.0,0 STARLINK-4083,1 52832U 22062C   23175.34423206  .00000550  00000-0  52632-4 0  9996,2 52832  53.2154 155.4635 0001094  89.8214 270.2904 15.08842618 56915,6917.872,95.437,540.494,538.981,0.0
52832.0,STARLINK-4083,PAYLOAD,2023-06-26 03:11:06,15.0883753,0.0001193,53.2153,147.4336,97.6448,262.468,1.4589e-05,-5.6e-07,0.0,0 STARLINK-4083,1 52832U 22062C   23177.13271627 -.00000056  00000-0  14589-4 0  9994,2 52832  53.2153 147.4336 0001193  97.6448 262.4680 15.08837530 57180,6917.888,95.438,540.578,538.928,0.0
52832.0,STARLINK-4083,PAYLOAD,2023-06-27 07:48:03,15.08840665,0.0001125,53.2153,142.0822,91.4084,268.7037,3.3966e-05,2.53e-06,0.0,0 STARLINK-4083,1 52832U 22062C   23178.32503547  .00000253  00000-0  33966-4 0  9993,2 52832  53.2153 142.0822 0001125  91.4084 268.7037 15.08840665 57362,6917.878,95.438,540.522,538.965,0.0
52832.0,STARLINK-4083,PAYLOAD,2023-06-29 04:18:51,15.08836191,0.0001099,53.2159,133.756,87.0703,273.0415,-1.1911e-06,-3.07e-06,0.0,0 STARLINK-4083,1 52832U 22062C   23180.17976483 -.00000307  00000-0 -11911-5 0  9991,2 52832  53.2159 133.7560 0001099  87.0703 273.0415 15.08836191 57642,6917.892,95.438,540.517,538.997,0.0
52832.0,STARLINK-4083,PAYLOAD,2023-06-30 13:41:57,15.08835429,0.0001426,53.2163,127.5118,84.7645,275.351,-2.4265e-05,-6.74e-06,0.0,0 STARLINK-4083,1 52832U 22062C   23181.57080763 -.00000674  00000-0 -24265-4 0  9995,2 52832  53.2163 127.5118 0001426  84.7645 275.3510 15.08835429 57857,6917.894,95.438,540.746,538.773,0.0
52832.0,STARLINK-4083,PAYLOAD,2023-07-02 02:15:49,15.08848912,0.000122,53.2162,120.6723,84.825,275.2882,4.0717e-05,3.6e-06,0.0,0 STARLINK-4083,1 52832U 22062C   23183.09432062  .00000360  00000-0  40717-4 0  9997,2 52832  53.2162 120.6723 0001220  84.8250 275.2882 15.08848912 58085,6917.853,95.437,540.562,538.874,0.0
52832.0,STARLINK-4083,PAYLOAD,2023-07-02 14:58:54,15.08840472,0.000128,53.2159,118.2938,81.8407,278.2731,9.5962e-05,1.24e-05,0.0,0 STARLINK-4083,1 52832U 22062C   23183.62424304  .00001240  00000-0  95962-4 0  9996,2 52832  53.2159 118.2938 0001280  81.8407 278.2731 15.08840472 58167,6917.879,95.438,540.629,538.858,0.0
52832.0,STARLINK-4083,PAYLOAD,2023-07-04 00:22:01,15.08835544,0.0001223,53.216,112.0483,91.1988,268.9144,-3.4505e-05,-8.37e-06,0.0,0 STARLINK-4083,1 52832U 22062C   23185.01529109 -.00000837  00000-0 -34505-4 0  9999,2 52832  53.2160 112.0483 0001223  91.1988 268.9144 15.08835544 58372,6917.894,95.438,540.605,538.913,0.0
52832.0,STARLINK-4083,PAYLOAD,2023-07-05 01:48:10,15.08844065,0.0001171,53.2163,107.2914,87.1761,272.9366,7.8545e-05,9.63e-06,0.0,0 STARLINK-4083,1 52832U 22062C   23186.07512331  .00000963  00000-0  78545-4 0  9995,2 52832  53.2163 107.2914 0001171  87.1761 272.9366 15.08844065 58533,6917.868,95.437,540.543,538.923,0.0
52832.0,STARLINK-4083,PAYLOAD,2023-07-05 04:58:57,15.08833869,9.15e-05,53.2163,106.6959,86.0287,274.0809,-5.3187e-05,-1.134e-05,0.0,0 STARLINK-4083,1 52832U 22062C   23186.20761072 -.00001134  00000-0 -53187-4 0  9996,2 52832  53.2163 106.6959 0000915  86.0287 274.0809 15.08833869 58558,6917.899,95.438,540.397,539.131,0.0
52832.0,STARLINK-4083,PAYLOAD,2023-07-05 11:20:29,15.08838661,7.08e-05,53.2169,105.5063,102.5974,257.5097,-2.59e-05,-7e-06,0.0,0 STARLINK-4083,1 52832U 22062C   23186.47256654 -.00000700  00000-0 -25900-4 0  9990,2 52832  53.2169 105.5063 0000708 102.5974 257.5097 15.08838661 58599,6917.884,95.438,540.239,539.26,0.0
52832.0,STARLINK-4083,PAYLOAD,2023-07-06 01:38:58,15.08832448,0.0001056,53.2163,102.8307,90.6225,269.4888,1.9748e-05,2.6e-07,0.0,0 STARLINK-4083,1 52832U 22062C   23187.06873519  .00000026  00000-0  19748-4 0  9993,2 52832  53.2163 102.8307 0001056  90.6225 269.4888 15.08832448 58684,6917.903,95.438,540.499,539.038,0.0
52832.0,STARLINK-4083,PAYLOAD,2023-07-06 19:08:12,15.08842065,0.0001128,53.2169,99.5599,93.8463,266.2658,3.544e-05,2.76e-06,0.0,0 STARLINK-4083,1 52832U 22062C   23187.79737170  .00000276  00000-0  35440-4 0  9999,2 52832  53.2169  99.5599 0001128  93.8463 266.2658 15.08842065 58792,6917.874,95.437,540.519,538.959,0.0
52832.0,STARLINK-4083,PAYLOAD,2023-07-07 03:05:08,15.08849363,0.0001095,53.2168,98.0731,92.1948,267.9169,7.8037e-05,9.55e-06,0.0,0 STARLINK-4083,1 52832U 22062C   23188.12856583  .00000955  00000-0  78037-4 0  9990,2 52832  53.2168  98.0731 0001095  92.1948 267.9169 15.08849363 58845,6917.852,95.437,540.474,538.959,0.0
52832.0,STARLINK-4083,PAYLOAD,2023-07-08 02:55:55,15.08844016,0.0001114,53.2167,93.6111,92.6767,267.4353,8.4538e-05,1.058e-05,0.0,0 STARLINK-4083,1 52832U 22062C   23189.12216982  .00001058  00000-0  84538-4 0  9992,2 52832  53.2167  93.6111 0001114  92.6767 267.4353 15.08844016 58999,6917.868,95.437,540.504,538.962,0.0
52832.0,STARLINK-4083,PAYLOAD,2023-07-08 10:52:51,15.08839626,0.0001088,53.217,92.1257,86.2009,273.9108,5.7656e-05,6.3e-06,0.0,0 STARLINK-4083,1 52832U 22062C   23189.45337373  .00000630  00000-0  57656-4 0  9992,2 52832  53.2170  92.1257 0001088  86.2009 273.9108 15.08839626 59044,6917.882,95.438,540.499,538.994,0.0
52832.0,STARLINK-4083,PAYLOAD,2023-07-09 17:05:11,15.08841519,0.0001141,53.2167,86.4752,89.2143,270.8979,1.2705e-05,-8.6e-07,0.0,0 STARLINK-4083,1 52832U 22062C   23190.71193506 -.00000086  00000-0  12705-4 0  9993,2 52832  53.2167  86.4752 0001141  89.2143 270.8979 15.08841519 59235,6917.876,95.437,540.53,538.951,0.0
52832.0,STARLINK-4083,PAYLOAD,2023-07-10 23:17:30,15.088355,0.0001111,53.2164,80.8256,87.4377,272.6743,7.7214e-05,9.41e-06,0.0,0 STARLINK-4083,1 52832U 22062C   23191.97049707  .00000941  00000-0  77214-4 0  9990,2 52832  53.2164  80.8256 0001111  87.4377 272.6743 15.08835500 59428,6917.894,95.438,540.528,538.991,0.0
52832.0,STARLINK-4083,PAYLOAD,2023-07-12 02:19:03,15.08845552,0.0001321,53.2176,75.7694,97.5565,262.5577,5.5191e-05,5.91e-06,0.0,0 STARLINK-4083,1 52832U 22062C   23193.09657129  .00000591  00000-0  55191-4 0  9999,2 52832  53.2176  75.7694 0001321  97.5565 262.5577 15.08845552 59593,6917.863,95.437,540.642,538.815,0.0
52832.0,STARLINK-4083,PAYLOAD,2023-07-12 08:40:36,15.08838218,0.0001425,53.2173,74.5784,95.4666,264.6489,8.0555e-06,-1.6e-06,0.0,0 STARLINK-4083,1 52832U 22062C   23193.36153772 -.00000160  00000-0  80555-5 0  9990,2 52832  53.2173  74.5784 0001425  95.4666 264.6489 15.08838218 59632,6917.886,95.438,540.737,538.765,0.0
52832.0,STARLINK-4083,PAYLOAD,2023-07-13 22:49:52,15.08837552,0.0001093,53.2174,67.4443,93.5646,266.5471,-1.0029e-05,-4.47e-06,0.0,0 STARLINK-4083,1 52832U 22062C   23194.95130322 -.00000447  00000-0 -10029-4 0  9999,2 52832  53.2174  67.4443 0001093  93.5646 266.5471 15.08837552 59872,6917.888,95.438,540.509,538.997,0.0
52832.0,STARLINK-4083,PAYLOAD,2023-07-15 00:16:01,15.08852033,0.0001028,53.2168,62.6856,92.4606,267.6504,0.00016181,2.289e-05,0.0,0 STARLINK-4083,1 52832U 22062C   23196.01113228  .00002289  00000-0  16181-3 0  9992,2 52832  53.2168  62.6856 0001028  92.4606 267.6504 15.08852033 60032,6917.844,95.437,540.42,538.997,0.0
52832.0,STARLINK-4083,PAYLOAD,2023-07-15 14:34:30,15.0884103,0.0001219,53.2169,60.0097,81.6318,278.4812,9.343e-05,1.199e-05,0.0,0 STARLINK-4083,1 52832U 22062C   23196.60730049  .00001199  00000-0  93430-4 0  9995,2 52832  53.2169  60.0097 0001219  81.6318 278.4812 15.08841030 60121,6917.877,95.437,540.586,538.899,0.0
52832.0,STARLINK-4083,PAYLOAD,2023-07-16 08:03:45,15.08836748,0.0001084,53.2174,56.7377,82.1059,278.0056,3.369e-05,2.48e-06,0.0,0 STARLINK-4083,1 52832U 22062C   23197.33594569  .00000248  00000-0  33690-4 0  9997,2 52832  53.2174  56.7377 0001084  82.1059 278.0056 15.08836748 60236,6917.89,95.438,540.505,539.005,0.0
52832.0,STARLINK-4083,PAYLOAD,2023-07-16 23:57:36,15.0884671,0.0001051,53.2174,53.7637,88.6667,271.4445,-7.0288e-07,-2.99e-06,0.0,0 STARLINK-4083,1 52832U 22062C   23197.99834025 -.00000299  00000-0 -70288-6 0  9997,2 52832  53.2174  53.7637 0001051  88.6667 271.4445 15.08846710 60332,6917.86,95.437,540.452,538.998,0.0
52832.0,STARLINK-4083,PAYLOAD,2023-07-18 23:39:11,15.08837562,0.0001163,53.2178,44.8415,96.5836,263.5289,1.1897e-05,-9.8e-07,0.0,0 STARLINK-4083,1 52832U 22062C   23199.98554572 -.00000098  00000-0  11897-4 0  9999,2 52832  53.2178  44.8415 0001163  96.5836 263.5289 15.08837562 60637,6917.888,95.438,540.557,538.948,0.0
52832.0,STARLINK-4083,PAYLOAD,2023-07-19 18:43:49,15.0883455,0.000117,53.2178,41.2727,100.2517,259.8607,-4.5491e-05,-1.012e-05,0.0,0 STARLINK-4083,1 52832U 22062C   23200.78043191 -.00001012  00000-0 -45491-4 0  9995,2 52832  53.2178  41.2727 0001170 100.2517 259.8607 15.08834550 60750,6917.897,95.438,540.571,538.953,0.0
52832.0,STARLINK-4083,PAYLOAD,2023-07-20 18:34:35,15.08840064,0.0001031,53.2177,36.8154,92.0879,268.0232,0.00014921,2.088e-05,0.0,0 STARLINK-4083,1 52832U 22062C   23201.77402668  .00002088  00000-0  14921-3 0  9998,2 52832  53.2177  36.8154 0001031  92.0879 268.0232 15.08840064 60908,6917.88,95.438,540.458,539.032,0.0
52832.0,STARLINK-4083,PAYLOAD,2023-07-24 00:28:29,15.08846378,9.98e-05,53.2178,22.2441,76.3354,283.7749,3.7027e-05,3.02e-06,0.0,0 STARLINK-4083,1 52832U 22062C   23205.01978762  .00000302  00000-0  37027-4 0  9992,2 52832  53.2178  22.2441 0000998  76.3354 283.7749 15.08846378 60902,6917.861,95.437,540.416,539.035,0.0
